{"fetched_at":"2026-05-11T02:57:59Z","count":17563,"tles":[{"name":"STARLINK-32789","line1":"1 62529U 25004U   26130.32499448  .00018171  00000+0  66841-3 0  9995","line2":"2 62529  42.9993 231.8960 0001549 263.3282  96.7393 15.27570397 75887","category":"Starlink"},{"name":"STARLINK-36272","line1":"1 68215U 26053J   26130.39607255  .00006460  00000+0  19699-3 0  9999","line2":"2 68215  97.2862   6.0346 0001628  91.0830 269.0600 15.34286829  9656","category":"Starlink"},{"name":"STARLINK-32277","line1":"1 60376U 24138X   26130.40183626  .00000734  00000+0  36918-4 0  9996","line2":"2 60376  53.1593  23.1212 0001186  82.4468 277.6668 15.30196883100073","category":"Starlink"},{"name":"STARLINK-35937","line1":"1 66517U 25265B   26130.51263150  .00011627  00000+0  43141-3 0  9992","line2":"2 66517  43.0003 289.2081 0001436 247.8477 112.2222 15.27577891 26563","category":"Starlink"},{"name":"STARLINK-11661 [DTC]","line1":"1 63676U 25085N   26130.42057450  .00134651  00000+0  10327-2 0  9991","line2":"2 63676  43.0021 266.0402 0001736 252.0852 107.9826 15.70913900 60601","category":"Starlink"},{"name":"UNKNOWN","line1":"1 81661U          23325.25773438  .00028112  00000+0  48487-2 0  9992","line2":"2 81661  98.4257 253.0334 0049099 337.1790  22.7231 14.67626996425789","category":"Other"},{"name":"TIANHUI 5B","line1":"1 58201U 23168C   26130.40837088  .00000345  00000+0  43976-4 0  9990","line2":"2 58201  97.8206 138.3214 0002120  96.2766 263.8691 14.87593303136988","category":"Other"},{"name":"STARLINK-11744 [DTC]","line1":"1 64380U 25127L   26130.19240017  .00189125  00000+0  14421-2 0  9993","line2":"2 64380  43.0000  73.9512 0002249 281.2052  78.8563 15.70871852 53171","category":"Starlink"},{"name":"DISKSAT A","line1":"1 67222U 25305D   26130.40195297  .00006408  00000+0  41334-3 0  9998","line2":"2 67222  45.0025 283.7380 0005699 305.2773  54.7570 15.09040460 21600","category":"Other"},{"name":"DRAGON CRS-30","line1":"1 59287U 24054A   24120.96661619  .00024915  00000+0  43122-3 0  9994","line2":"2 59287  51.6391 194.4959 0003387 121.9323  48.5079 15.50771109  6017","category":"Other"},{"name":"STARLINK-35055","line1":"1 65524U 25200E   26130.44723443  .00003453  00000+0  24336-3 0  9999","line2":"2 65524  97.5105 200.5436 0001916 147.5042 212.6303 15.05648223 38421","category":"Starlink"},{"name":"STARLINK-36934","line1":"1 68279U 26055T   26130.43994813  .00021487  00000+0  50162-3 0  9991","line2":"2 68279  53.1592  32.5592 0001061  81.0296 279.0830 15.42172271  9380","category":"Starlink"},{"name":"FENGYUN 1C DEB","line1":"1 31649U 99025CBF 23179.27279376  .00001801  00000+0  17854-2 0  9999","line2":"2 31649  98.1716 340.6979 0279747  94.8340 268.4806 13.63390041800966","category":"Weather"},{"name":"STARLINK-2301","line1":"1 48021U 21024AW  23362.17321303  .00012967  00000+0  88751-3 0  9996","line2":"2 48021  53.0550 274.2439 0001434  90.5365 269.5788 15.06412204153993","category":"Starlink"},{"name":"STARLINK-32195","line1":"1 60440U 24144R   26129.73482772 -.00000616  00000+0 -71164-5 0  9997","line2":"2 60440  53.1615 293.0012 0001207  84.2624 275.8516 15.34379383 98669","category":"Starlink"},{"name":"STARLINK-35941","line1":"1 66583U 25268AC  26130.35005682  .00011168  00000+0  41492-3 0  9991","line2":"2 66583  43.0032 358.5110 0001215 280.9425  79.1290 15.27565752 27398","category":"Starlink"},{"name":"MOLNIYA 2-14","line1":"1 08195U 75081A   26104.13150933  .00000261  00000+0  00000+0 0  9999","line2":"2 08195  64.6437  40.5072 6848706 283.7536  13.7136  2.02054520371110","category":"Other"},{"name":"KAITUO 1A","line1":"1 40904U 15049F   24317.59573385  .11430338  26210-5  54056-3 0  9990","line2":"2 40904  97.4362 343.1380 0008343 251.4010 108.6384 16.42435648507648","category":"Other"},{"name":"KUIPER-00027","line1":"1 63740U 25088S   26130.51777635  .00001085  00000+0  17132-3 0  9996","line2":"2 63740  51.9011 182.1881 0000470  88.3419 271.7597 14.79926935 56770","category":"Other"},{"name":"STARLINK-32143","line1":"1 60296U 24132U   26130.44300698 -.00002966  00000+0 -83867-4 0  9991","line2":"2 60296  53.1592 125.6952 0001503  93.7639 266.3534 15.31687142101016","category":"Starlink"},{"name":"STARLINK-32793","line1":"1 62874U 25022W   26130.51192250  .00012638  00000+0  43813-3 0  9996","line2":"2 62874  53.1579 202.5850 0001142  90.7780 269.3352 15.30198135 71363","category":"Starlink"},{"name":"SWC-1","line1":"1 68540U 26069C   26107.51011483 -.00000351  00000+0  00000+0 0  9993","line2":"2 68540  28.3533 357.7706 8357664  80.9928 279.0715  1.01840683   168","category":"Other"},{"name":"STARLINK-35383","line1":"1 65793U 25218C   26130.50087308  .00003602  00000+0  25359-3 0  9998","line2":"2 65793  97.5105 353.7888 0001892  80.5546 279.5895 15.05656014 34273","category":"Starlink"},{"name":"STARLINK-30766","line1":"1 58125U 23162H   26130.47481354  .00004905  00000+0  18772-3 0  9998","line2":"2 58125  43.0038 140.3874 0001566 269.8384  90.2288 15.27566670141792","category":"Starlink"},{"name":"STARLINK-31522","line1":"1 59204U 24046D   26130.52781551 -.00000723  00000+0 -12287-4 0  9999","line2":"2 59204  53.1606 228.3627 0001358 105.0710 255.0441 15.30198688122515","category":"Starlink"},{"name":"ELECTRON KICK STAGE R/B","line1":"1 61792U 24201A   24334.49196430  .11752310  21736-5  78759-3 0  9999","line2":"2 61792  97.8944 241.8772 0055062 188.7122 171.3222 16.32746336  3772","category":"Other"},{"name":"STARLINK-36569","line1":"1 67553U 26014X   26130.40165731  .00006118  00000+0  19170-3 0  9994","line2":"2 67553  97.2865  17.7000 0001763  96.5026 263.6418 15.33440417 18231","category":"Starlink"},{"name":"STARLINK-34208","line1":"1 64740U 25144S   26130.49829509  .00017433  00000+0  52592-3 0  9998","line2":"2 64740  53.1576 251.2046 0000913  80.7075 279.4031 15.34398549 49213","category":"Starlink"},{"name":"STARLINK-32270","line1":"1 60364U 24138K   26130.39655894 -.00000212  00000+0  49621-5 0  9990","line2":"2 60364  53.1615  23.0925 0001118  85.0360 275.0768 15.30197011 99973","category":"Starlink"},{"name":"STARLINK-32875","line1":"1 62951U 25029D   26130.50002315  .00026709  00000+0  82065-3 0  9996","line2":"2 62951  53.1588 303.0825 0001264  98.3503 241.3057 15.33544230  5903","category":"Starlink"},{"name":"STARLINK-37130","line1":"1 68604U 26073C   26130.49226378  .00140222  00000+0  92366-3 0  9994","line2":"2 68604  97.2839 329.2829 0001404  95.0613 265.0812 15.75239152  5281","category":"Starlink"},{"name":"STARLINK-35489","line1":"1 65857U 25223D   26130.50002315  .01638343  00000+0  45630-1 0  9999","line2":"2 65857  53.1585   7.3973 0001574  46.7295 345.2854 15.33239255  5913","category":"Starlink"},{"name":"STARLINK-30796","line1":"1 58189U 23167Q   26130.12029349  .00001810  00000+0  75283-4 0  9990","line2":"2 58189  43.0030 156.1632 0001408 257.1287 102.9408 15.27586796140388","category":"Starlink"},{"name":"STARLINK-31609","line1":"1 59269U 24050R   26130.52470792 -.00000004  00000+0  11993-4 0  9991","line2":"2 59269  53.1623 253.9278 0000896  82.2746 277.8356 15.30185093120018","category":"Starlink"},{"name":"2024-205P","line1":"1 61907U 24205P   26130.54388789  .00000329  00000+0  20069-4 0  9994","line2":"2 61907  97.4138 203.8180 0012063 181.9393 178.1796 15.16855514 82623","category":"Other"},{"name":"STARLINK-36548","line1":"1 67617U 26020A   26130.37214163  .00004511  00000+0  17334-3 0  9997","line2":"2 67617  43.0030 151.7449 0001220 270.6331  89.4381 15.27580656 15540","category":"Starlink"},{"name":"STARLINK-34633","line1":"1 64804U 25150Q   26130.28582527  .00002153  00000+0  18811-3 0  9998","line2":"2 64804  70.0014 339.1332 0002658 269.7588  90.3267 14.98338971 45746","category":"Starlink"},{"name":"STARLINK-32193","line1":"1 60428U 24144D   26129.87479302 -.00001443  00000+0 -36598-4 0  9993","line2":"2 60428  53.1605 293.1647 0000870  75.1724 284.9373 15.30202800 98717","category":"Starlink"},{"name":"STARLINK-11541 [DTC]","line1":"1 63015U 25032L   26130.53471836  .00154821  00000+0  11860-2 0  9994","line2":"2 63015  42.9997 182.2667 0001192 221.1051 138.9726 15.70874835 71950","category":"Starlink"},{"name":"STARLINK-37302","line1":"1 68669U 26077H   26130.50002315  .00093672  00000+0  17063-2 0  9990","line2":"2 68669  97.2847   2.2117 0001487  93.4176 337.9065 15.49143536  5668","category":"Starlink"},{"name":"STARLINK-35530","line1":"1 65921U 25225M   26130.53516280  .00010548  00000+0  36773-3 0  9997","line2":"2 65921  53.1589 238.6478 0001160  99.4271 260.6861 15.30202951 33872","category":"Starlink"},{"name":"FLOCK 4BE-36","line1":"1 60486U 24149U   26130.48159418  .00011559  00000+0  27713-3 0  9999","line2":"2 60486  97.3737 214.4948 0004351  63.2832 296.8859 15.41552528 96540","category":"Other"},{"name":"STARLINK-35904","line1":"1 66627U 25271L   26130.53084846  .00015072  00000+0  51995-3 0  9990","line2":"2 66627  53.1577 212.7730 0001117  90.9380 269.1749 15.30200895 26995","category":"Starlink"},{"name":"STARLINK-33933","line1":"1 63784U 25091K   26130.22880497  .00015521  00000+0  57226-3 0  9995","line2":"2 63784  42.9996  58.0484 0001160 230.3711 129.7039 15.27585632 58506","category":"Starlink"},{"name":"ZHONGXING-6E","line1":"1 58253U 23172A   26130.58509787 -.00000352  00000+0  00000+0 0  9998","line2":"2 58253   0.0129 266.2512 0002765 144.2052 144.0919  1.00269499  9286","category":"Other"},{"name":"YUNHAI-3 02","line1":"1 59343U 24058A   26130.52625993  .00000001  00000+0  23683-4 0  9992","line2":"2 59343  98.8214 138.9062 0001969 103.8179 256.3213 14.13324186109422","category":"Other"},{"name":"STARLINK-32610","line1":"1 61971U 24210N   26130.19406844  .00009128  00000+0  34083-3 0  9991","line2":"2 61971  42.9977 192.7001 0001300 272.4434  87.6269 15.27580063 84326","category":"Starlink"},{"name":"COSMOS 2607","line1":"1 67681U 26023H   26130.44426744  .00005481  00000+0  22459-3 0  9990","line2":"2 67681  96.6320 198.8162 0020181 256.0789 103.8206 15.24435920 14246","category":"Other"}]}